0 CELTEE 1
1 41850U 16067C   25330.11161176  .00008173  00000+0  41805-3 0  9994
2 41850  98.0890 177.8604 0001047 124.8482 235.2848 15.16934633495065
